HIMAWARI-8              
1 40267U 14060A   23305.19262833 -.00000275  00000+0  00000+0 0  9990
2 40267   0.0154 166.3890 0000934  66.4724  17.3826  1.00271242 33247
